SL-14 R/B               
1 16792U 86046B   26008.38871903  .00000660  00000+0  73260-4 0  9997
2 16792  82.4833 137.1481 0024453  68.7264 291.6560 14.85521765117452
SL-14 R/B               
1 16882U 86055B   26008.51958381  .00000689  00000+0  76663-4 0  9999
2 16882  82.5199 183.2080 0019205 167.0623 247.3978 14.85565218110439
AJISAI (EGS)            
1 16908U 86061A   26008.50988546 -.00000080  00000+0  12538-3 0  9996
2 16908  50.0096 278.4022 0011311 133.0857  46.5574 12.44514756460500
COSMOS 1812             
1 17295U 87003A   26008.16481981  .00126884  00000+0  61043-3 0  9991
2 17295  82.4842 263.2831 0003959  57.3790 302.7860 15.82272788134820
SL-14 R/B               
1 17567U 87024B   26008.51135978  .00000712  00000+0  78356-4 0  9994
2 17567  82.5292 149.3058 0019711  99.4888 260.8558 14.86061567 79195
COSMOS 1833             
1 17589U 87027A   26008.47668984  .00000351  00000+0  21327-3 0  9998
2 17589  70.9187  92.5752 0023814 294.6854  65.1788 14.13039129  1818
SL-16 R/B               
1 17590U 87027B   26008.48358920  .00000253  00000+0  14943-3 0  9994
2 17590  71.0031  43.3636 0006717 231.1346 128.9179 14.17158290  6812
SL-14 R/B               
1 17912U 87038B   26008.40796148  .00000666  00000+0  74579-4 0  9994
2 17912  82.5018 353.5794 0019521   8.7564 351.3989 14.85294643 70281
COSMOS 1844             
1 17973U 87041A   26008.50465933 -.00000044  00000+0  23768-5 0  9997
2 17973  70.8992 161.1198 0028500 114.6571 245.7523 14.14539312995072
SL-14 R/B               
1 18153U 87055B   26008.46256858  .00000539  00000+0  59392-4 0  9991
2 18153  82.4980  45.8001 0019908 209.0038 151.0074 14.85553650 60992
COSMOS 1867             
1 18187U 87060A   26008.49983243  .00000018  00000+0  44338-4 0  9998
2 18187  65.0111 115.2643 0013794 273.7325  86.2182 14.31491826 11329
SL-14 R/B               
1 18749U 88001B   26008.38656587  .00000532  00000+0  58647-4 0  9993
2 18749  82.5121 252.0858 0019588  78.5947 281.7468 14.85456605 33074
