CCSDS_OMM_VERS = 2.0
CREATION_DATE  = 
ORIGINATOR     = 

OBJECT_NAME    = SL-14 R/B
OBJECT_ID      = 1986-046B
CENTER_NAME    = EARTH
REF_FRAME      = TEME
TIME_SYSTEM    = UTC
MEAN_ELEMENT_THEORY = SGP/SGP4

EPOCH          = 2026-01-08T09:19:45.324192
MEAN_MOTION    = 14.85521765
ECCENTRICITY   = .0024453
INCLINATION    = 82.4833
RA_OF_ASC_NODE = 137.1481
ARG_OF_PERICENTER = 68.7264
MEAN_ANOMALY   = 291.6560

EPHEMERIS_TYPE = 0
CLASSIFICATION_TYPE = U
NORAD_CAT_ID   = 16792
ELEMENT_SET_NO = 999
REV_AT_EPOCH   = 11745
BSTAR          = .7326E-4
MEAN_MOTION_DOT = .66E-5
MEAN_MOTION_DDOT = 0

CCSDS_OMM_VERS = 2.0
CREATION_DATE  = 
ORIGINATOR     = 

OBJECT_NAME    = SL-14 R/B
OBJECT_ID      = 1986-055B
CENTER_NAME    = EARTH
REF_FRAME      = TEME
TIME_SYSTEM    = UTC
MEAN_ELEMENT_THEORY = SGP/SGP4

EPOCH          = 2026-01-08T12:28:12.041184
MEAN_MOTION    = 14.85565218
ECCENTRICITY   = .0019205
INCLINATION    = 82.5199
RA_OF_ASC_NODE = 183.2080
ARG_OF_PERICENTER = 167.0623
MEAN_ANOMALY   = 247.3978

EPHEMERIS_TYPE = 0
CLASSIFICATION_TYPE = U
NORAD_CAT_ID   = 16882
ELEMENT_SET_NO = 999
REV_AT_EPOCH   = 11043
BSTAR          = .76663E-4
MEAN_MOTION_DOT = .689E-5
MEAN_MOTION_DDOT = 0

CCSDS_OMM_VERS = 2.0
CREATION_DATE  = 
ORIGINATOR     = 

OBJECT_NAME    = AJISAI (EGS)
OBJECT_ID      = 1986-061A
CENTER_NAME    = EARTH
REF_FRAME      = TEME
TIME_SYSTEM    = UTC
MEAN_ELEMENT_THEORY = SGP/SGP4

EPOCH          = 2026-01-08T12:14:14.103744
MEAN_MOTION    = 12.44514756
ECCENTRICITY   = .0011311
INCLINATION    = 50.0096
RA_OF_ASC_NODE = 278.4022
ARG_OF_PERICENTER = 133.0857
MEAN_ANOMALY   = 46.5574

EPHEMERIS_TYPE = 0
CLASSIFICATION_TYPE = U
NORAD_CAT_ID   = 16908
ELEMENT_SET_NO = 999
REV_AT_EPOCH   = 46050
BSTAR          = .12538E-3
MEAN_MOTION_DOT = -.8E-6
MEAN_MOTION_DDOT = 0

CCSDS_OMM_VERS = 2.0
CREATION_DATE  = 
ORIGINATOR     = 

OBJECT_NAME    = COSMOS 1812
OBJECT_ID      = 1987-003A
CENTER_NAME    = EARTH
REF_FRAME      = TEME
TIME_SYSTEM    = UTC
MEAN_ELEMENT_THEORY = SGP/SGP4

EPOCH          = 2026-01-08T03:57:20.431584
MEAN_MOTION    = 15.82272788
ECCENTRICITY   = .00039599
INCLINATION    = 82.4842
RA_OF_ASC_NODE = 263.2831
ARG_OF_PERICENTER = 57.3790
MEAN_ANOMALY   = 302.7860

EPHEMERIS_TYPE = 0
CLASSIFICATION_TYPE = U
NORAD_CAT_ID   = 17295
ELEMENT_SET_NO = 999
REV_AT_EPOCH   = 13482
BSTAR          = .6104307E-3
MEAN_MOTION_DOT = .126884E-2
MEAN_MOTION_DDOT = 0

CCSDS_OMM_VERS = 2.0
CREATION_DATE  = 
ORIGINATOR     = 

OBJECT_NAME    = SL-14 R/B
OBJECT_ID      = 1987-024B
CENTER_NAME    = EARTH
REF_FRAME      = TEME
TIME_SYSTEM    = UTC
MEAN_ELEMENT_THEORY = SGP/SGP4

EPOCH          = 2026-01-08T12:16:21.484992
MEAN_MOTION    = 14.86061567
ECCENTRICITY   = .0019711
INCLINATION    = 82.5292
RA_OF_ASC_NODE = 149.3058
ARG_OF_PERICENTER = 99.4888
MEAN_ANOMALY   = 260.8558

EPHEMERIS_TYPE = 0
CLASSIFICATION_TYPE = U
NORAD_CAT_ID   = 17567
ELEMENT_SET_NO = 999
REV_AT_EPOCH   = 7919
BSTAR          = .78356E-4
MEAN_MOTION_DOT = .712E-5
MEAN_MOTION_DDOT = 0

CCSDS_OMM_VERS = 2.0
CREATION_DATE  = 
ORIGINATOR     = 

OBJECT_NAME    = COSMOS 1833
OBJECT_ID      = 1987-027A
CENTER_NAME    = EARTH
REF_FRAME      = TEME
TIME_SYSTEM    = UTC
MEAN_ELEMENT_THEORY = SGP/SGP4

EPOCH          = 2026-01-08T11:26:26.002176
MEAN_MOTION    = 14.13039129
ECCENTRICITY   = .0023814
INCLINATION    = 70.9187
RA_OF_ASC_NODE = 92.5752
ARG_OF_PERICENTER = 294.6854
MEAN_ANOMALY   = 65.1788

EPHEMERIS_TYPE = 0
CLASSIFICATION_TYPE = U
NORAD_CAT_ID   = 17589
ELEMENT_SET_NO = 999
REV_AT_EPOCH   = 181
BSTAR          = .21327E-3
MEAN_MOTION_DOT = .351E-5
MEAN_MOTION_DDOT = 0

CCSDS_OMM_VERS = 2.0
CREATION_DATE  = 
ORIGINATOR     = 

OBJECT_NAME    = SL-16 R/B
OBJECT_ID      = 1987-027B
CENTER_NAME    = EARTH
REF_FRAME      = TEME
TIME_SYSTEM    = UTC
MEAN_ELEMENT_THEORY = SGP/SGP4

EPOCH          = 2026-01-08T11:36:22.106880
MEAN_MOTION    = 14.17158290
ECCENTRICITY   = .0006717
INCLINATION    = 71.0031
RA_OF_ASC_NODE = 43.3636
ARG_OF_PERICENTER = 231.1346
MEAN_ANOMALY   = 128.9179

EPHEMERIS_TYPE = 0
CLASSIFICATION_TYPE = U
NORAD_CAT_ID   = 17590
ELEMENT_SET_NO = 999
REV_AT_EPOCH   = 681
BSTAR          = .14943E-3
MEAN_MOTION_DOT = .253E-5
MEAN_MOTION_DDOT = 0

CCSDS_OMM_VERS = 2.0
CREATION_DATE  = 
ORIGINATOR     = 

OBJECT_NAME    = SL-14 R/B
OBJECT_ID      = 1987-038B
CENTER_NAME    = EARTH
REF_FRAME      = TEME
TIME_SYSTEM    = UTC
MEAN_ELEMENT_THEORY = SGP/SGP4

EPOCH          = 2026-01-08T09:47:27.871872
MEAN_MOTION    = 14.85294643
ECCENTRICITY   = .0019521
INCLINATION    = 82.5018
RA_OF_ASC_NODE = 353.5794
ARG_OF_PERICENTER = 8.7564
MEAN_ANOMALY   = 351.3989

EPHEMERIS_TYPE = 0
CLASSIFICATION_TYPE = U
NORAD_CAT_ID   = 17912
ELEMENT_SET_NO = 999
REV_AT_EPOCH   = 7028
BSTAR          = .74579E-4
MEAN_MOTION_DOT = .666E-5
MEAN_MOTION_DDOT = 0

CCSDS_OMM_VERS = 2.0
CREATION_DATE  = 
ORIGINATOR     = 

OBJECT_NAME    = COSMOS 1844
OBJECT_ID      = 1987-041A
CENTER_NAME    = EARTH
REF_FRAME      = TEME
TIME_SYSTEM    = UTC
MEAN_ELEMENT_THEORY = SGP/SGP4

EPOCH          = 2026-01-08T12:06:42.566112
MEAN_MOTION    = 14.14539312
ECCENTRICITY   = .00285
INCLINATION    = 70.8992
RA_OF_ASC_NODE = 161.1198
ARG_OF_PERICENTER = 114.6571
MEAN_ANOMALY   = 245.7523

EPHEMERIS_TYPE = 0
CLASSIFICATION_TYPE = U
NORAD_CAT_ID   = 17973
ELEMENT_SET_NO = 999
REV_AT_EPOCH   = 99507
BSTAR          = .23768E-5
MEAN_MOTION_DOT = -.44E-6
MEAN_MOTION_DDOT = 0

CCSDS_OMM_VERS = 2.0
CREATION_DATE  = 
ORIGINATOR     = 

OBJECT_NAME    = SL-14 R/B
OBJECT_ID      = 1987-055B
CENTER_NAME    = EARTH
REF_FRAME      = TEME
TIME_SYSTEM    = UTC
MEAN_ELEMENT_THEORY = SGP/SGP4

EPOCH          = 2026-01-08T11:06:05.925312
MEAN_MOTION    = 14.85553650
ECCENTRICITY   = .0019908
INCLINATION    = 82.4980
RA_OF_ASC_NODE = 45.8001
ARG_OF_PERICENTER = 209.0038
MEAN_ANOMALY   = 151.0074

EPHEMERIS_TYPE = 0
CLASSIFICATION_TYPE = U
NORAD_CAT_ID   = 18153
ELEMENT_SET_NO = 999
REV_AT_EPOCH   = 6099
BSTAR          = .59392E-4
MEAN_MOTION_DOT = .539E-5
MEAN_MOTION_DDOT = 0

CCSDS_OMM_VERS = 2.0
CREATION_DATE  = 
ORIGINATOR     = 

OBJECT_NAME    = COSMOS 1867
OBJECT_ID      = 1987-060A
CENTER_NAME    = EARTH
REF_FRAME      = TEME
TIME_SYSTEM    = UTC
MEAN_ELEMENT_THEORY = SGP/SGP4

EPOCH          = 2026-01-08T11:59:45.521952
MEAN_MOTION    = 14.31491826
ECCENTRICITY   = .0013794
INCLINATION    = 65.0111
RA_OF_ASC_NODE = 115.2643
ARG_OF_PERICENTER = 273.7325
MEAN_ANOMALY   = 86.2182

EPHEMERIS_TYPE = 0
CLASSIFICATION_TYPE = U
NORAD_CAT_ID   = 18187
ELEMENT_SET_NO = 999
REV_AT_EPOCH   = 1132
BSTAR          = .44338E-4
MEAN_MOTION_DOT = .18E-6
MEAN_MOTION_DDOT = 0

CCSDS_OMM_VERS = 2.0
CREATION_DATE  = 
ORIGINATOR     = 

OBJECT_NAME    = SL-14 R/B
OBJECT_ID      = 1988-001B
CENTER_NAME    = EARTH
REF_FRAME      = TEME
TIME_SYSTEM    = UTC
MEAN_ELEMENT_THEORY = SGP/SGP4

EPOCH          = 2026-01-08T09:16:39.291168
MEAN_MOTION    = 14.85456605
ECCENTRICITY   = .0019588
INCLINATION    = 82.5121
RA_OF_ASC_NODE = 252.0858
ARG_OF_PERICENTER = 78.5947
MEAN_ANOMALY   = 281.7468

EPHEMERIS_TYPE = 0
CLASSIFICATION_TYPE = U
NORAD_CAT_ID   = 18749
ELEMENT_SET_NO = 999
REV_AT_EPOCH   = 3307
BSTAR          = .58647E-4
MEAN_MOTION_DOT = .532E-5
MEAN_MOTION_DDOT = 0

